[{"OBJECT_NAME":"IRIDIUM 173","OBJECT_ID":"2019-002D","EPOCH":"2026-03-03T10:01:22.627200","MEAN_MOTION":14.34214624,"ECCENTRICITY":0.00020592,"INCLINATION":86.3957,"RA_OF_ASC_NODE":37.7545,"ARG_OF_PERICENTER":81.1476,"MEAN_ANOMALY":278.9953,"EPHEMERIS_TYPE":0,"CLASSIFICATION_TYPE":"U","NORAD_CAT_ID":43925,"ELEMENT_SET_NO":999,"REV_AT_EPOCH":37379,"BSTAR":-0.00021011565,"MEAN_MOTION_DOT":-5.69e-6,"MEAN_MOTION_DDOT":0},{"OBJECT_NAME":"IRIDIUM 169","OBJECT_ID":"2019-002E","EPOCH":"2026-03-04T00:20:41.192160","MEAN_MOTION":14.38610927,"ECCENTRICITY":0.0001562,"INCLINATION":86.4165,"RA_OF_ASC_NODE":69.1625,"ARG_OF_PERICENTER":75.0573,"MEAN_ANOMALY":285.0798,"EPHEMERIS_TYPE":0,"CLASSIFICATION_TYPE":"U","NORAD_CAT_ID":43926,"ELEMENT_SET_NO":999,"REV_AT_EPOCH":37510,"BSTAR":9.7196e-5,"MEAN_MOTION_DOT":3.17e-6,"MEAN_MOTION_DDOT":0},{"OBJECT_NAME":"IRIDIUM 172","OBJECT_ID":"2019-002F","EPOCH":"2026-03-04T00:56:26.922336","MEAN_MOTION":14.34217867,"ECCENTRICITY":0.0002361,"INCLINATION":86.3964,"RA_OF_ASC_NODE":37.5022,"ARG_OF_PERICENTER":86.5559,"MEAN_ANOMALY":273.5907,"EPHEMERIS_TYPE":0,"CLASSIFICATION_TYPE":"U","NORAD_CAT_ID":43927,"ELEMENT_SET_NO":999,"REV_AT_EPOCH":37389,"BSTAR":1.5783e-5,"MEAN_MOTION_DOT":6.4e-7,"MEAN_MOTION_DDOT":0},{"OBJECT_NAME":"IRIDIUM 175","OBJECT_ID":"2019-002G","EPOCH":"2026-03-04T01:49:53.896800","MEAN_MOTION":14.72247134,"ECCENTRICITY":0.0002296,"INCLINATION":86.1544,"RA_OF_ASC_NODE":335.3228,"ARG_OF_PERICENTER":108.7212,"MEAN_ANOMALY":251.4254,"EPHEMERIS_TYPE":0,"CLASSIFICATION_TYPE":"U","NORAD_CAT_ID":43928,"ELEMENT_SET_NO":999,"REV_AT_EPOCH":38377,"BSTAR":0.00011472,"MEAN_MOTION_DOT":7.48e-6,"MEAN_MOTION_DDOT":0},{"OBJECT_NAME":"IRIDIUM 171","OBJECT_ID":"2019-002H","EPOCH":"2026-03-04T03:49:58.900800","MEAN_MOTION":14.34217335,"ECCENTRICITY":0.0001946,"INCLINATION":86.3968,"RA_OF_ASC_NODE":37.7469,"ARG_OF_PERICENTER":91.6234,"MEAN_ANOMALY":268.5184,"EPHEMERIS_TYPE":0,"CLASSIFICATION_TYPE":"U","NORAD_CAT_ID":43929,"ELEMENT_SET_NO":999,"REV_AT_EPOCH":37390,"BSTAR":-1.137e-5,"MEAN_MOTION_DOT":-1.2e-7,"MEAN_MOTION_DDOT":0},{"OBJECT_NAME":"IRIDIUM 170","OBJECT_ID":"2019-002J","EPOCH":"2026-03-03T11:24:33.092064","MEAN_MOTION":14.72256676,"ECCENTRICITY":0.00026134,"INCLINATION":86.6083,"RA_OF_ASC_NODE":37.7241,"ARG_OF_PERICENTER":91.363,"MEAN_ANOMALY":268.7886,"EPHEMERIS_TYPE":0,"CLASSIFICATION_TYPE":"U","NORAD_CAT_ID":43930,"ELEMENT_SET_NO":999,"REV_AT_EPOCH":38370,"BSTAR":0.00021129942,"MEAN_MOTION_DOT":1.357e-5,"MEAN_MOTION_DDOT":0},{"OBJECT_NAME":"IRIDIUM 167","OBJECT_ID":"2019-002K","EPOCH":"2026-03-04T00:19:54.829056","MEAN_MOTION":14.34217918,"ECCENTRICITY":0.0001849,"INCLINATION":86.3961,"RA_OF_ASC_NODE":37.5343,"ARG_OF_PERICENTER":90.5134,"MEAN_ANOMALY":269.6274,"EPHEMERIS_TYPE":0,"CLASSIFICATION_TYPE":"U","NORAD_CAT_ID":43931,"ELEMENT_SET_NO":999,"REV_AT_EPOCH":37388,"BSTAR":-3.38e-7,"MEAN_MOTION_DOT":1.9e-7,"MEAN_MOTION_DDOT":0},{"OBJECT_NAME":"IRIDIUM 181","OBJECT_ID":"2023-068S","EPOCH":"2026-03-04T03:24:07.651008","MEAN_MOTION":14.43314803,"ECCENTRICITY":0.0002607,"INCLINATION":86.446,"RA_OF_ASC_NODE":100.7208,"ARG_OF_PERICENTER":98.1233,"MEAN_ANOMALY":262.0264,"EPHEMERIS_TYPE":0,"CLASSIFICATION_TYPE":"U","NORAD_CAT_ID":56726,"ELEMENT_SET_NO":999,"REV_AT_EPOCH":14728,"BSTAR":0.00012695,"MEAN_MOTION_DOT":4.48e-6,"MEAN_MOTION_DDOT":0},{"OBJECT_NAME":"IRIDIUM 177","OBJECT_ID":"2023-068T","EPOCH":"2026-03-03T19:06:54.621792","MEAN_MOTION":14.80240534,"ECCENTRICITY":0.0002379,"INCLINATION":86.1994,"RA_OF_ASC_NODE":18.819,"ARG_OF_PERICENTER":80.5448,"MEAN_ANOMALY":279.6041,"EPHEMERIS_TYPE":0,"CLASSIFICATION_TYPE":"U","NORAD_CAT_ID":56727,"ELEMENT_SET_NO":999,"REV_AT_EPOCH":15077,"BSTAR":0.00026458,"MEAN_MOTION_DOT":2.037e-5,"MEAN_MOTION_DDOT":0},{"OBJECT_NAME":"IRIDIUM 174","OBJECT_ID":"2023-068U","EPOCH":"2026-03-03T11:06:45.659808","MEAN_MOTION":14.7225932,"ECCENTRICITY":0.00026028,"INCLINATION":86.609,"RA_OF_ASC_NODE":37.8661,"ARG_OF_PERICENTER":83.4423,"MEAN_ANOMALY":276.709,"EPHEMERIS_TYPE":0,"CLASSIFICATION_TYPE":"U","NORAD_CAT_ID":56728,"ELEMENT_SET_NO":999,"REV_AT_EPOCH":15046,"BSTAR":0.00022286422,"MEAN_MOTION_DOT":1.43e-5,"MEAN_MOTION_DDOT":0},{"OBJECT_NAME":"IRIDIUM 178","OBJECT_ID":"2023-068V","EPOCH":"2026-03-04T01:20:36.106080","MEAN_MOTION":14.80230101,"ECCENTRICITY":0.0002293,"INCLINATION":86.6481,"RA_OF_ASC_NODE":69.2958,"ARG_OF_PERICENTER":98.8868,"MEAN_ANOMALY":261.2613,"EPHEMERIS_TYPE":0,"CLASSIFICATION_TYPE":"U","NORAD_CAT_ID":56729,"ELEMENT_SET_NO":999,"REV_AT_EPOCH":15081,"BSTAR":9.7517e-5,"MEAN_MOTION_DOT":7.67e-6,"MEAN_MOTION_DDOT":0},{"OBJECT_NAME":"IRIDIUM 179","OBJECT_ID":"2023-068W","EPOCH":"2026-03-04T01:12:52.334208","MEAN_MOTION":14.80240161,"ECCENTRICITY":0.0002262,"INCLINATION":86.6717,"RA_OF_ASC_NODE":77.9729,"ARG_OF_PERICENTER":93.5378,"MEAN_ANOMALY":266.6103,"EPHEMERIS_TYPE":0,"CLASSIFICATION_TYPE":"U","NORAD_CAT_ID":56730,"ELEMENT_SET_NO":999,"REV_AT_EPOCH":15081,"BSTAR":9.2989e-5,"MEAN_MOTION_DOT":7.33e-6,"MEAN_MOTION_DDOT":0}]
