IRIDIUM 173             
1 43925U 19002D   26062.41762300 -.00000569  00000+0 -21012-3 0  9994
2 43925  86.3957  37.7545 0002059  81.1476 278.9953 14.34214624373790
IRIDIUM 169             
1 43926U 19002E   26063.01436565  .00000317  00000+0  97196-4 0  9999
2 43926  86.4165  69.1625 0001562  75.0573 285.0798 14.38610927375102
IRIDIUM 172             
1 43927U 19002F   26063.03920049  .00000064  00000+0  15783-4 0  9998
2 43927  86.3964  37.5022 0002361  86.5559 273.5907 14.34217867373898
IRIDIUM 175             
1 43928U 19002G   26063.07631825  .00000748  00000+0  11472-3 0  9993
2 43928  86.1544 335.3228 0002296 108.7212 251.4254 14.72247134383778
IRIDIUM 171             
1 43929U 19002H   26063.15970950 -.00000012  00000+0 -11370-4 0  9992
2 43929  86.3968  37.7469 0001946  91.6234 268.5184 14.34217335373909
IRIDIUM 170             
1 43930U 19002J   26062.47538301  .00001357  00000+0  21130-3 0  9993
2 43930  86.6083  37.7241 0002613  91.3630 268.7886 14.72256676383702
IRIDIUM 167             
1 43931U 19002K   26063.01382904  .00000019  00000+0 -33800-6 0  9996
2 43931  86.3961  37.5343 0001849  90.5134 269.6274 14.34217918373889
IRIDIUM 181             
1 56726U 23068S   26063.14175522  .00000448  00000+0  12695-3 0  9990
2 56726  86.4460 100.7208 0002607  98.1233 262.0264 14.43314803147280
IRIDIUM 177             
1 56727U 23068T   26062.79646553  .00002037  00000+0  26458-3 0  9996
2 56727  86.1994  18.8190 0002379  80.5448 279.6041 14.80240534150773
IRIDIUM 174             
1 56728U 23068U   26062.46302847  .00001430  00000+0  22286-3 0  9997
2 56728  86.6090  37.8661 0002602  83.4423 276.7090 14.72259320150466
IRIDIUM 178             
1 56729U 23068V   26063.05597345  .00000767  00000+0  97517-4 0  9995
2 56729  86.6481  69.2958 0002293  98.8868 261.2613 14.80230101150812
IRIDIUM 179             
1 56730U 23068W   26063.05060572  .00000733  00000+0  92989-4 0  9995
2 56730  86.6717  77.9729 0002262  93.5378 266.6103 14.80240161150812
